[{"OBJECT_NAME":"STARLINK-30768","OBJECT_ID":"2023-162C","EPOCH":"2026-03-09T22:00:01.999584","MEAN_MOTION":15.26757325,"ECCENTRICITY":0.00010714,"INCLINATION":42.9999,"RA_OF_ASC_NODE":130.5897,"ARG_OF_PERICENTER":254.0999,"MEAN_ANOMALY":302.3228,"EPHEMERIS_TYPE":0,"CLASSIFICATION_TYPE":"U","NORAD_CAT_ID":58120,"ELEMENT_SET_NO":999,"REV_AT_EPOCH":568,"BSTAR":-0.00056375229,"MEAN_MOTION_DOT":-0.00015358,"MEAN_MOTION_DDOT":0},{"OBJECT_NAME":"ALSAT-3A","OBJECT_ID":"2026-009A","EPOCH":"2026-03-09T22:30:09.645696","MEAN_MOTION":15.23911932,"ECCENTRICITY":0.00134314,"INCLINATION":97.4617,"RA_OF_ASC_NODE":143.4537,"ARG_OF_PERICENTER":76.5175,"MEAN_ANOMALY":283.7557,"EPHEMERIS_TYPE":0,"CLASSIFICATION_TYPE":"U","NORAD_CAT_ID":67474,"ELEMENT_SET_NO":999,"REV_AT_EPOCH":816,"BSTAR":0.00035948927,"MEAN_MOTION_DOT":8.636e-5,"MEAN_MOTION_DDOT":0}]
